{
  "type": "FeatureCollection",
  "features": [
    {
      "type": "Feature",
      "properties": {
        "norad_id": 43823,
        "name": "GEO-KOMPSAT-2A",
        "group": "weather",
        "lat": -0.02221518147194456,
        "lon": 9.618865854898827,
        "alt_km": 35786.669857558685,
        "timestamp": "2025-12-25T09:48:51.930986+00:00",
        "meta_object_name": "GEO-KOMPSAT-2A",
        "meta_object_id": "2018-100A",
        "meta_epoch": "2025-12-24T05:33:51.801120",
        "meta_mean_motion": 1.00269294,
        "meta_eccentricity": 3.001e-05,
        "meta_inclination": 0.0444,
        "meta_ra_of_asc_node": 175.8502,
        "meta_arg_of_pericenter": 270.743,
        "meta_mean_anomaly": 218.1364,
        "meta_ephemeris_type": 0,
        "meta_classification_type": "U",
        "meta_norad_cat_id": 43823,
        "meta_element_set_no": 999,
        "meta_rev_at_epoch": 2587,
        "meta_bstar": 0,
        "meta_mean_motion_dot": -3.23e-06,
        "meta_mean_motion_ddot": 0,
        "tle_line1": "1 43823U 18100A   25358.23184955 -.00000323  00000+0  00000+0 0  9997",
        "tle_line2": "2 43823   0.0444 175.8502 0000300 270.7430 218.1364  1.00269294 25878"
      },
      "geometry": {
        "type": "Point",
        "coordinates": [
          9.618865854898827,
          -0.02221518147194456
        ]
      }
    },
    {
      "type": "Feature",
      "properties": {
        "norad_id": 44387,
        "name": "METEOR-M2 2",
        "group": "weather",
        "lat": 40.08192393364314,
        "lon": 166.86952663911725,
        "alt_km": 806.4412671031778,
        "timestamp": "2025-12-25T09:48:51.930997+00:00",
        "meta_object_name": "METEOR-M2 2",
        "meta_object_id": "2019-038A",
        "meta_epoch": "2025-12-25T04:06:17.952768",
        "meta_mean_motion": 14.24296286,
        "meta_eccentricity": 0.00018,
        "meta_inclination": 98.8986,
        "meta_ra_of_asc_node": 339.0525,
        "meta_arg_of_pericenter": 124.5068,
        "meta_mean_anomaly": 235.628,
        "meta_ephemeris_type": 0,
        "meta_classification_type": "U",
        "meta_norad_cat_id": 44387,
        "meta_element_set_no": 999,
        "meta_rev_at_epoch": 33652,
        "meta_bstar": 7.6025e-05,
        "meta_mean_motion_dot": 1.3e-06,
        "meta_mean_motion_ddot": 0,
        "tle_line1": "1 44387U 19038A   25359.17104112  .00000130  00000+0  76025-4 0  9995",
        "tle_line2": "2 44387  98.8986 339.0525 0001800 124.5068 235.6280 14.24296286336527"
      },
      "geometry": {
        "type": "Point",
        "coordinates": [
          166.86952663911725,
          40.08192393364314
        ]
      }
    },
    {
      "type": "Feature",
      "properties": {
        "norad_id": 47719,
        "name": "ARKTIKA-M 1",
        "group": "weather",
        "lat": 51.45684976753495,
        "lon": -137.0567436079373,
        "alt_km": 27767.992103506655,
        "timestamp": "2025-12-25T09:48:51.931010+00:00",
        "meta_object_name": "ARKTIKA-M 1",
        "meta_object_id": "2021-016A",
        "meta_epoch": "2025-12-23T01:01:51.743136",
        "meta_mean_motion": 2.00630806,
        "meta_eccentricity": 0.72093828,
        "meta_inclination": 63.1759,
        "meta_ra_of_asc_node": 82.5898,
        "meta_arg_of_pericenter": 269.1646,
        "meta_mean_anomaly": 15.5425,
        "meta_ephemeris_type": 0,
        "meta_classification_type": "U",
        "meta_norad_cat_id": 47719,
        "meta_element_set_no": 999,
        "meta_rev_at_epoch": 3525,
        "meta_bstar": 0,
        "meta_mean_motion_dot": -6.7e-07,
        "meta_mean_motion_ddot": 0,
        "tle_line1": "1 47719U 21016A   25357.04295999 -.00000067  00000+0  00000+0 0  9999",
        "tle_line2": "2 47719  63.1759  82.5898 7209382 269.1646  15.5425  2.00630806 35258"
      },
      "geometry": {
        "type": "Point",
        "coordinates": [
          -137.0567436079373,
          51.45684976753495
        ]
      }
    },
    {
      "type": "Feature",
      "properties": {
        "norad_id": 49008,
        "name": "FENGYUN 3E",
        "group": "weather",
        "lat": -74.66956800098353,
        "lon": 145.6096318138462,
        "alt_km": 832.786689500449,
        "timestamp": "2025-12-25T09:48:51.931025+00:00",
        "meta_object_name": "FENGYUN 3E",
        "meta_object_id": "2021-062A",
        "meta_epoch": "2025-12-25T00:08:59.663904",
        "meta_mean_motion": 14.19880478,
        "meta_eccentricity": 9.536e-05,
        "meta_inclination": 98.7476,
        "meta_ra_of_asc_node": 359.3815,
        "meta_arg_of_pericenter": 191.0635,
        "meta_mean_anomaly": 169.052,
        "meta_ephemeris_type": 0,
        "meta_classification_type": "U",
        "meta_norad_cat_id": 49008,
        "meta_element_set_no": 999,
        "meta_rev_at_epoch": 23186,
        "meta_bstar": -7.5946387e-05,
        "meta_mean_motion_dot": -2.05e-06,
        "meta_mean_motion_ddot": 0,
        "tle_line1": "1 49008U 21062A   25359.00624611 -.00000205  00000+0 -75946-4 0  9999",
        "tle_line2": "2 49008  98.7476 359.3815 0000953 191.0635 169.0520 14.19880478231863"
      },
      "geometry": {
        "type": "Point",
        "coordinates": [
          145.6096318138462,
          -74.66956800098353
        ]
      }
    },
    {
      "type": "Feature",
      "properties": {
        "norad_id": 51850,
        "name": "GOES 18",
        "group": "weather",
        "lat": -6.49581688256597e-05,
        "lon": 104.37818889057168,
        "alt_km": 35787.63576341123,
        "timestamp": "2025-12-25T09:48:51.931037+00:00",
        "meta_object_name": "GOES 18",
        "meta_object_id": "2022-021A",
        "meta_epoch": "2025-12-25T02:08:26.134368",
        "meta_mean_motion": 1.00271254,
        "meta_eccentricity": 4.06e-05,
        "meta_inclination": 0.0027,
        "meta_ra_of_asc_node": 276.3002,
        "meta_arg_of_pericenter": 41.3938,
        "meta_mean_anomaly": 31.2662,
        "meta_ephemeris_type": 0,
        "meta_classification_type": "U",
        "meta_norad_cat_id": 51850,
        "meta_element_set_no": 999,
        "meta_rev_at_epoch": 484,
        "meta_bstar": 0,
        "meta_mean_motion_dot": 1.18e-06,
        "meta_mean_motion_ddot": 0,
        "tle_line1": "1 51850U 22021A   25359.08919137  .00000118  00000+0  00000+0 0  9996",
        "tle_line2": "2 51850   0.0027 276.3002 0000406  41.3938  31.2662  1.00271254  4846"
      },
      "geometry": {
        "type": "Point",
        "coordinates": [
          104.37818889057168,
          -6.49581688256597e-05
        ]
      }
    },
    {
      "type": "Feature",
      "properties": {
        "norad_id": 54234,
        "name": "NOAA 21 (JPSS-2)",
        "group": "weather",
        "lat": -66.03627701712917,
        "lon": 95.2914919577936,
        "alt_km": 834.8227914821864,
        "timestamp": "2025-12-25T09:48:51.931048+00:00",
        "meta_object_name": "NOAA 21 (JPSS-2)",
        "meta_object_id": "2022-150A",
        "meta_epoch": "2025-12-24T20:48:36.242496",
        "meta_mean_motion": 14.19527401,
        "meta_eccentricity": 0.00016632,
        "meta_inclination": 98.7478,
        "meta_ra_of_asc_node": 295.0249,
        "meta_arg_of_pericenter": 12.9884,
        "meta_mean_anomaly": 347.1335,
        "meta_ephemeris_type": 0,
        "meta_classification_type": "U",
        "meta_norad_cat_id": 54234,
        "meta_element_set_no": 999,
        "meta_rev_at_epoch": 16181,
        "meta_bstar": 7.0672378e-05,
        "meta_mean_motion_dot": 1.05e-06,
        "meta_mean_motion_ddot": 0,
        "tle_line1": "1 54234U 22150A   25358.86708614  .00000105  00000+0  70672-4 0  9992",
        "tle_line2": "2 54234  98.7478 295.0249 0001663  12.9884 347.1335 14.19527401161819"
      },
      "geometry": {
        "type": "Point",
        "coordinates": [
          95.2914919577936,
          -66.03627701712917
        ]
      }
    },
    {
      "type": "Feature",
      "properties": {
        "norad_id": 54743,
        "name": "METEOSAT-12 (MTG-I1)",
        "group": "weather",
        "lat": -0.42066484458745956,
        "lon": -118.95317350371491,
        "alt_km": 35780.18378745783,
        "timestamp": "2025-12-25T09:48:51.931094+00:00",
        "meta_object_name": "METEOSAT-12 (MTG-I1)",
        "meta_object_id": "2022-170C",
        "meta_epoch": "2025-12-24T21:39:29.392992",
        "meta_mean_motion": 1.00270881,
        "meta_eccentricity": 0.0001621,
        "meta_inclination": 0.6994,
        "meta_ra_of_asc_node": 25.6342,
        "meta_arg_of_pericenter": 240.988,
        "meta_mean_anomaly": 151.5996,
        "meta_ephemeris_type": 0,
        "meta_classification_type": "U",
        "meta_norad_cat_id": 54743,
        "meta_element_set_no": 999,
        "meta_rev_at_epoch": 1123,
        "meta_bstar": 0,
        "meta_mean_motion_dot": 1.3e-07,
        "meta_mean_motion_ddot": 0,
        "tle_line1": "1 54743U 22170C   25358.90242353  .00000013  00000+0  00000+0 0  9998",
        "tle_line2": "2 54743   0.6994  25.6342 0001621 240.9880 151.5996  1.00270881 11236"
      },
      "geometry": {
        "type": "Point",
        "coordinates": [
          -118.95317350371491,
          -0.42066484458745956
        ]
      }
    }
  ]
}